{
  "type": "FeatureCollection",
  "features": [
    {
      "type": "Feature",
      "properties": {
        "norad_id": 67077,
        "name": "STARLINK-36243",
        "group": "last-30-days",
        "lat": -37.95139418986172,
        "lon": -168.41327920180814,
        "alt_km": 356.2425075776173,
        "timestamp": "2025-12-27T11:23:18.582254+00:00",
        "meta_object_name": "STARLINK-36243",
        "meta_object_id": "2025-298C",
        "meta_epoch": "2025-12-27T04:00:01.998720",
        "meta_mean_motion": 15.73568,
        "meta_eccentricity": 0.0003804,
        "meta_inclination": 70.0011,
        "meta_ra_of_asc_node": 208.9581,
        "meta_arg_of_pericenter": 278.2168,
        "meta_mean_anomaly": 98.3575,
        "meta_ephemeris_type": 0,
        "meta_classification_type": "U",
        "meta_norad_cat_id": 67077,
        "meta_element_set_no": 999,
        "meta_rev_at_epoch": 329,
        "meta_bstar": -0.014293,
        "meta_mean_motion_dot": -0.01763596,
        "meta_mean_motion_ddot": 0,
        "tle_line1": "1 67077U 25298C   25361.16668980 -.01763596  00000+0 -14293-1 0  9992",
        "tle_line2": "2 67077  70.0011 208.9581 0003804 278.2168  98.3575 15.73568000  3296"
      },
      "geometry": {
        "type": "Point",
        "coordinates": [
          -168.41327920180814,
          -37.95139418986172
        ]
      }
    },
    {
      "type": "Feature",
      "properties": {
        "norad_id": 67078,
        "name": "STARLINK-36236",
        "group": "last-30-days",
        "lat": -36.29370294203973,
        "lon": -167.42703293364463,
        "alt_km": 356.14590644774216,
        "timestamp": "2025-12-27T11:23:18.582264+00:00",
        "meta_object_name": "STARLINK-36236",
        "meta_object_id": "2025-298D",
        "meta_epoch": "2025-12-27T04:00:01.998720",
        "meta_mean_motion": 15.73566253,
        "meta_eccentricity": 0.0003862,
        "meta_inclination": 70.0013,
        "meta_ra_of_asc_node": 208.956,
        "meta_arg_of_pericenter": 278.9178,
        "meta_mean_anomaly": 99.4912,
        "meta_ephemeris_type": 0,
        "meta_classification_type": "U",
        "meta_norad_cat_id": 67078,
        "meta_element_set_no": 999,
        "meta_rev_at_epoch": 329,
        "meta_bstar": -0.014207,
        "meta_mean_motion_dot": -0.01754273,
        "meta_mean_motion_ddot": 0,
        "tle_line1": "1 67078U 25298D   25361.16668980 -.01754273  00000+0 -14207-1 0  9990",
        "tle_line2": "2 67078  70.0013 208.9560 0003862 278.9178  99.4912 15.73566253  3293"
      },
      "geometry": {
        "type": "Point",
        "coordinates": [
          -167.42703293364463,
          -36.29370294203973
        ]
      }
    },
    {
      "type": "Feature",
      "properties": {
        "norad_id": 67079,
        "name": "STARLINK-36159",
        "group": "last-30-days",
        "lat": -34.50425636361828,
        "lon": -166.4150727996718,
        "alt_km": 357.25879251682,
        "timestamp": "2025-12-27T11:23:18.582274+00:00",
        "meta_object_name": "STARLINK-36159",
        "meta_object_id": "2025-298E",
        "meta_epoch": "2025-12-27T04:00:01.998720",
        "meta_mean_motion": 15.73638704,
        "meta_eccentricity": 0.0003916,
        "meta_inclination": 69.9992,
        "meta_ra_of_asc_node": 208.9538,
        "meta_arg_of_pericenter": 277.9484,
        "meta_mean_anomaly": 102.6089,
        "meta_ephemeris_type": 0,
        "meta_classification_type": "U",
        "meta_norad_cat_id": 67079,
        "meta_element_set_no": 999,
        "meta_rev_at_epoch": 329,
        "meta_bstar": -0.019739,
        "meta_mean_motion_dot": -0.02390866,
        "meta_mean_motion_ddot": 0,
        "tle_line1": "1 67079U 25298E   25361.16668980 -.02390866  00000+0 -19739-1 0  9991",
        "tle_line2": "2 67079  69.9992 208.9538 0003916 277.9484 102.6089 15.73638704  3294"
      },
      "geometry": {
        "type": "Point",
        "coordinates": [
          -166.4150727996718,
          -34.50425636361828
        ]
      }
    },
    {
      "type": "Feature",
      "properties": {
        "norad_id": 67080,
        "name": "STARLINK-36158",
        "group": "last-30-days",
        "lat": -32.46318662884643,
        "lon": -165.31513808515783,
        "alt_km": 356.30051024922705,
        "timestamp": "2025-12-27T11:23:18.582284+00:00",
        "meta_object_name": "STARLINK-36158",
        "meta_object_id": "2025-298F",
        "meta_epoch": "2025-12-27T04:00:01.998720",
        "meta_mean_motion": 15.73551521,
        "meta_eccentricity": 0.0003698,
        "meta_inclination": 70.0015,
        "meta_ra_of_asc_node": 208.9506,
        "meta_arg_of_pericenter": 276.3373,
        "meta_mean_anomaly": 106.307,
        "meta_ephemeris_type": 0,
        "meta_classification_type": "U",
        "meta_norad_cat_id": 67080,
        "meta_element_set_no": 999,
        "meta_rev_at_epoch": 323,
        "meta_bstar": -0.01435,
        "meta_mean_motion_dot": -0.01768626,
        "meta_mean_motion_ddot": 0,
        "tle_line1": "1 67080U 25298F   25361.16668980 -.01768626  00000+0 -14350-1 0  9999",
        "tle_line2": "2 67080  70.0015 208.9506 0003698 276.3373 106.3070 15.73551521  3233"
      },
      "geometry": {
        "type": "Point",
        "coordinates": [
          -165.31513808515783,
          -32.46318662884643
        ]
      }
    },
    {
      "type": "Feature",
      "properties": {
        "norad_id": 67081,
        "name": "STARLINK-35864",
        "group": "last-30-days",
        "lat": -30.675945009309462,
        "lon": -164.39699350682656,
        "alt_km": 356.1118918711736,
        "timestamp": "2025-12-27T11:23:18.582294+00:00",
        "meta_object_name": "STARLINK-35864",
        "meta_object_id": "2025-298G",
        "meta_epoch": "2025-12-27T04:00:01.998720",
        "meta_mean_motion": 15.73553222,
        "meta_eccentricity": 0.0003773,
        "meta_inclination": 70.0014,
        "meta_ra_of_asc_node": 208.9486,
        "meta_arg_of_pericenter": 279.3741,
        "meta_mean_anomaly": 105.2218,
        "meta_ephemeris_type": 0,
        "meta_classification_type": "U",
        "meta_norad_cat_id": 67081,
        "meta_element_set_no": 999,
        "meta_rev_at_epoch": 329,
        "meta_bstar": -0.014345,
        "meta_mean_motion_dot": -0.01768282,
        "meta_mean_motion_ddot": 0,
        "tle_line1": "1 67081U 25298G   25361.16668980 -.01768282  00000+0 -14345-1 0  9992",
        "tle_line2": "2 67081  70.0014 208.9486 0003773 279.3741 105.2218 15.73553222  3294"
      },
      "geometry": {
        "type": "Point",
        "coordinates": [
          -164.39699350682656,
          -30.675945009309462
        ]
      }
    },
    {
      "type": "Feature",
      "properties": {
        "norad_id": 67082,
        "name": "STARLINK-36035",
        "group": "last-30-days",
        "lat": -28.821162084391016,
        "lon": -163.48285834360507,
        "alt_km": 355.99489633121993,
        "timestamp": "2025-12-27T11:23:18.582304+00:00",
        "meta_object_name": "STARLINK-36035",
        "meta_object_id": "2025-298H",
        "meta_epoch": "2025-12-27T04:00:01.998720",
        "meta_mean_motion": 15.73545152,
        "meta_eccentricity": 0.0003827,
        "meta_inclination": 70.0014,
        "meta_ra_of_asc_node": 208.9463,
        "meta_arg_of_pericenter": 281.0681,
        "meta_mean_anomaly": 105.5559,
        "meta_ephemeris_type": 0,
        "meta_classification_type": "U",
        "meta_norad_cat_id": 67082,
        "meta_element_set_no": 999,
        "meta_rev_at_epoch": 329,
        "meta_bstar": -0.014339,
        "meta_mean_motion_dot": -0.01767094,
        "meta_mean_motion_ddot": 0,
        "tle_line1": "1 67082U 25298H   25361.16668980 -.01767094  00000+0 -14339-1 0  9996",
        "tle_line2": "2 67082  70.0014 208.9463 0003827 281.0681 105.5559 15.73545152  3297"
      },
      "geometry": {
        "type": "Point",
        "coordinates": [
          -163.48285834360507,
          -28.821162084391016
        ]
      }
    },
    {
      "type": "Feature",
      "properties": {
        "norad_id": 67083,
        "name": "STARLINK-36170",
        "group": "last-30-days",
        "lat": -26.93449533778134,
        "lon": -162.59138189844214,
        "alt_km": 356.1598225970383,
        "timestamp": "2025-12-27T11:23:18.582314+00:00",
        "meta_object_name": "STARLINK-36170",
        "meta_object_id": "2025-298J",
        "meta_epoch": "2025-12-27T04:00:01.998720",
        "meta_mean_motion": 15.73536547,
        "meta_eccentricity": 0.0003689,
        "meta_inclination": 69.999,
        "meta_ra_of_asc_node": 208.9429,
        "meta_arg_of_pericenter": 276.8017,
        "meta_mean_anomaly": 111.8763,
        "meta_ephemeris_type": 0,
        "meta_classification_type": "U",
        "meta_norad_cat_id": 67083,
        "meta_element_set_no": 999,
        "meta_rev_at_epoch": 329,
        "meta_bstar": -0.014316,
        "meta_mean_motion_dot": -0.01763896,
        "meta_mean_motion_ddot": 0,
        "tle_line1": "1 67083U 25298J   25361.16668980 -.01763896  00000+0 -14316-1 0  9998",
        "tle_line2": "2 67083  69.9990 208.9429 0003689 276.8017 111.8763 15.73536547  3296"
      },
      "geometry": {
        "type": "Point",
        "coordinates": [
          -162.59138189844214,
          -26.93449533778134
        ]
      }
    }
  ]
}